[{"OBJECT_NAME":"CATCH-1","OBJECT_ID":"2024-116A","EPOCH":"2026-03-09T23:23:31.862976","MEAN_MOTION":14.84553399,"ECCENTRICITY":0.00043121,"INCLINATION":28.9968,"RA_OF_ASC_NODE":19.2665,"ARG_OF_PERICENTER":129.2844,"MEAN_ANOMALY":230.8133,"EPHEMERIS_TYPE":0,"CLASSIFICATION_TYPE":"U","NORAD_CAT_ID":60088,"ELEMENT_SET_NO":999,"REV_AT_EPOCH":9290,"BSTAR":0.00032499126,"MEAN_MOTION_DOT":2.929e-5,"MEAN_MOTION_DDOT":0},{"OBJECT_NAME":"GEESAT-6 06","OBJECT_ID":"2025-214G","EPOCH":"2026-03-09T23:14:28.648896","MEAN_MOTION":14.82777466,"ECCENTRICITY":0.00100835,"INCLINATION":49.9903,"RA_OF_ASC_NODE":45.5054,"ARG_OF_PERICENTER":219.3637,"MEAN_ANOMALY":140.6569,"EPHEMERIS_TYPE":0,"CLASSIFICATION_TYPE":"U","NORAD_CAT_ID":65718,"ELEMENT_SET_NO":999,"REV_AT_EPOCH":2481,"BSTAR":0.00035226241,"MEAN_MOTION_DOT":2.655e-5,"MEAN_MOTION_DDOT":0}]
